STARLINK-5737           
1 55570U 23020B   26175.15037933 -.00000140  00000+0  44146-5 0  9990
2 55570  43.0017 124.0518 0000684 251.6571 108.4206 15.27576216185192
STARLINK-5739           
1 55571U 23020C   26175.14345966 -.00000303  00000+0 -14890-5 0  9993
2 55571  43.0018 127.4086 0001418 280.4394  79.6298 15.27578558185157
STARLINK-5732           
1 55572U 23020D   26174.87934115  .00000765  00000+0  37321-4 0  9996
2 55572  43.0025 128.8666 0001333 266.2162  93.8537 15.27580687185112
STARLINK-5738           
1 55573U 23020E   26175.13703522 -.00000396  00000+0 -48495-5 0  9990
2 55573  43.0045 127.3606 0001661 271.2220  88.8442 15.27580018185159
STARLINK-5747           
1 55574U 23020F   26175.17172749  .00000110  00000+0  13531-4 0  9990
2 55574  43.0018 127.6197 0000664 277.6439  82.4337 15.27575746185157
STARLINK-5745           
1 55575U 23020G   26175.21527183 -.00000042  00000+0  79867-5 0  9992
2 55575  43.0030 127.0840 0001331 269.2973  90.7726 15.27575886185163
STARLINK-5751           
1 55576U 23020H   26175.09450630 -.00000300  00000+0 -13973-5 0  9995
2 55576  43.0026  98.4951 0000980 266.5700  93.5040 15.27574986185485
STARLINK-5752           
1 55577U 23020J   26175.16192818 -.00000028  00000+0  85059-5 0  9995
2 55577  43.0023 124.0535 0000725 263.9610  96.1159 15.27575055185191
STARLINK-5754           
1 55579U 23020L   26175.14138333  .00001268  00000+0  55616-4 0  9998
2 55579  43.0020 123.9789 0001331 272.4482  87.6217 15.27577745185193
STARLINK-5757           
1 55580U 23020M   26174.84323543 -.00000100  00000+0  58849-5 0  9992
2 55580  43.0050 100.0500 0001492 270.4857  89.5824 15.27576307185443
STARLINK-5753           
1 55581U 23020N   26174.29936354  .00000974  00000+0  44914-4 0  9997
2 55581  43.0030 135.6607 0001397 269.1854  90.8837 15.27580280184982
STARLINK-5741           
1 55582U 23020P   26175.10041208  .00002169  00000+0  88278-4 0  9993
2 55582  43.0036 113.2679 0001089 249.2094 110.8641 15.27590789185312
STARLINK-5742           
1 55583U 23020Q   26174.59515934  .00000128  00000+0  14175-4 0  9996
2 55583  43.0044 126.7642 0001541 271.4943  88.5732 15.27574861185117
STARLINK-5736           
1 55584U 23020R   26174.98120372 -.00000311  00000+0 -17947-5 0  9995
2 55584  43.0032 125.3602 0001042 284.7407  75.3329 15.27576040185166
STARLINK-5769           
1 55585U 23020S   26175.12484406 -.00000041  00000+0  80358-5 0  9999
2 55585  43.0022 113.4577 0000804 243.2519 116.8251 15.27575251185319
STARLINK-5767           
1 55586U 23020T   26175.16065577 -.00000032  00000+0  83770-5 0  9999
2 55586  43.0018 124.1236 0001095 264.7715  95.3011 15.27576179185196
STARLINK-5727           
1 55587U 23020U   26175.15422172 -.00000319  00000+0 -20755-5 0  9990
2 55587  43.0033 124.0030 0000532 238.6954 121.3846 15.27575262185193
STARLINK-5728           
1 55588U 23020V   26175.15680265 -.00000357  00000+0 -34444-5 0  9992
2 55588  43.0014 124.0991 0001072 259.4734 100.5997 15.27575701185190
STARLINK-5697           
1 55589U 23020W   26175.14523863  .00000338  00000+0  21825-4 0  9997
2 55589  43.0014 124.0078 0001168 262.3999  97.6720 15.27569182185195
STARLINK-5762           
1 55590U 23020X   26175.13881154  .00000471  00000+0  26646-4 0  9992
2 55590  43.0023 123.9656 0001399 267.9040  92.1651 15.27577716185196
STARLINK-5760           
1 55591U 23020Y   26175.15294937 -.00000295  00000+0 -11951-5 0  9992
2 55591  43.0015 124.0696 0000713 250.7104 109.3671 15.27576247185195
STARLINK-5759           
1 55592U 23020Z   26174.85927625  .00001053  00000+0  47788-4 0  9993
2 55592  43.0041 125.3049 0001460 269.3334  90.7350 15.27572633185150
STARLINK-5703           
1 55593U 23020AA  26174.59387356  .00001015  00000+0  46432-4 0  9999
2 55593  43.0040 126.7553 0001434 283.1371  76.9321 15.27566860185116
STARLINK-5750           
1 55594U 23020AB  26175.12467489  .00000348  00000+0  22182-4 0  9990
2 55594  43.0042 123.8575 0001690 268.1790  91.8868 15.27578346185195
STARLINK-5729           
1 55596U 23020AD  26175.13495713 -.00003003  00000+0 -99630-4 0  9999
2 55596  43.0032 123.9335 0000789 259.1725 100.9038 15.27587802185195
STARLINK-5743           
1 55597U 23020AE  26174.94781056 -.00000253  00000+0  33388-6 0  9999
2 55597  43.0050 113.8538 0001339 275.2212  84.8487 15.27576033185294
STARLINK-5756           
1 55598U 23020AF  26175.11327197  .00000301  00000+0  20450-4 0  9999
2 55598  43.0004 113.3373 0001475 266.5024  93.5659 15.27574074185315
STARLINK-5761           
1 55599U 23020AG  26175.11712848  .00000792  00000+0  38298-4 0  9994
2 55599  43.0016 113.3698 0001150 269.8208  90.2511 15.27576655185317
STARLINK-5755           
1 55600U 23020AH  26175.09271605 -.00000046  00000+0  78541-5 0  9994
2 55600  43.0012 113.2020 0001234 250.6521 109.4197 15.27576242185318
STARLINK-5744           
1 55601U 23020AJ  26174.91709736  .00000146  00000+0  14839-4 0  9995
2 55601  43.0051 125.7305 0001459 277.8950  82.1736 15.27576857185152
