OBJECT_NAME,OBJECT_ID,EPOCH,MEAN_MOTION,ECCENTRICITY,INCLINATION,RA_OF_ASC_NODE,ARG_OF_PERICENTER,MEAN_ANOMALY,EPHEMERIS_TYPE,CLASSIFICATION_TYPE,NORAD_CAT_ID,ELEMENT_SET_NO,REV_AT_EPOCH,BSTAR,MEAN_MOTION_DOT,MEAN_MOTION_DDOT
STARLINK-5737,2023-020B,2026-06-24T03:36:32.774112,15.27576216,.00006844,43.0017,124.0518,251.6571,108.4206,0,U,55570,999,18519,.4414564E-5,-.14E-5,0
STARLINK-5739,2023-020C,2026-06-24T03:26:34.914624,15.27578558,.00014181,43.0018,127.4086,280.4394,79.6298,0,U,55571,999,18515,-.1488958E-5,-.303E-5,0
STARLINK-5732,2023-020D,2026-06-23T21:06:15.075360,15.27580687,.00013338,43.0025,128.8666,266.2162,93.8537,0,U,55572,999,18511,.37321106E-4,.765E-5,0
STARLINK-5738,2023-020E,2026-06-24T03:17:19.843008,15.27580018,.00016618,43.0045,127.3606,271.2220,88.8442,0,U,55573,999,18515,-.4849478E-5,-.396E-5,0
STARLINK-5747,2023-020F,2026-06-24T04:07:17.255136,15.27575746,.00006648,43.0018,127.6197,277.6439,82.4337,0,U,55574,999,18515,.13530778E-4,.11E-5,0
STARLINK-5745,2023-020G,2026-06-24T05:09:59.486112,15.27575886,.00013317,43.0030,127.0840,269.2973,90.7726,0,U,55575,999,18516,.7986749E-5,-.42E-6,0
STARLINK-5751,2023-020H,2026-06-24T02:16:05.344320,15.27574986,.000098,43.0026,98.4951,266.5700,93.5040,0,U,55576,999,18548,-.1397319E-5,-.3E-5,0
STARLINK-5752,2023-020J,2026-06-24T03:53:10.594752,15.27575055,.00007259,43.0023,124.0535,263.9610,96.1159,0,U,55577,999,18519,.850586E-5,-.28E-6,0
STARLINK-5754,2023-020L,2026-06-24T03:23:35.519712,15.27577745,.00013316,43.0020,123.9789,272.4482,87.6217,0,U,55579,999,18519,.55616125E-4,.1268E-4,0
STARLINK-5757,2023-020M,2026-06-23T20:14:15.541152,15.27576307,.00014921,43.0050,100.0500,270.4857,89.5824,0,U,55580,999,18544,.5884856E-5,-.1E-5,0
STARLINK-5753,2023-020N,2026-06-23T07:11:05.009856,15.27580280,.00013973,43.0030,135.6607,269.1854,90.8837,0,U,55581,999,18498,.44914284E-4,.974E-5,0
STARLINK-5741,2023-020P,2026-06-24T02:24:35.603712,15.27590789,.00010892,43.0036,113.2679,249.2094,110.8641,0,U,55582,999,18531,.88278173E-4,.2169E-4,0
STARLINK-5742,2023-020Q,2026-06-23T14:17:01.766976,15.27574861,.00015417,43.0044,126.7642,271.4943,88.5732,0,U,55583,999,18511,.14175079E-4,.128E-5,0
STARLINK-5736,2023-020R,2026-06-23T23:32:56.001408,15.27576040,.00010429,43.0032,125.3602,284.7407,75.3329,0,U,55584,999,18516,-.1794688E-5,-.311E-5,0
STARLINK-5769,2023-020S,2026-06-24T02:59:46.526784,15.27575251,.00008043,43.0022,113.4577,243.2519,116.8251,0,U,55585,999,18531,.803578E-5,-.41E-6,0
STARLINK-5767,2023-020T,2026-06-24T03:51:20.658528,15.27576179,.00010955,43.0018,124.1236,264.7715,95.3011,0,U,55586,999,18519,.8376959E-5,-.32E-6,0
STARLINK-5727,2023-020U,2026-06-24T03:42:04.756608,15.27575262,.00005325,43.0033,124.0030,238.6954,121.3846,0,U,55587,999,18519,-.2075541E-5,-.319E-5,0
STARLINK-5728,2023-020V,2026-06-24T03:45:47.748960,15.27575701,.0001072,43.0014,124.0991,259.4734,100.5997,0,U,55588,999,18519,-.3444439E-5,-.357E-5,0
STARLINK-5697,2023-020W,2026-06-24T03:29:08.617632,15.27569182,.00011687,43.0014,124.0078,262.3999,97.6720,0,U,55589,999,18519,.21824664E-4,.338E-5,0
STARLINK-5762,2023-020X,2026-06-24T03:19:53.317056,15.27577716,.00013999,43.0023,123.9656,267.9040,92.1651,0,U,55590,999,18519,.26645546E-4,.471E-5,0
STARLINK-5760,2023-020Y,2026-06-24T03:40:14.825568,15.27576247,.0000713,43.0015,124.0696,250.7104,109.3671,0,U,55591,999,18519,-.1195129E-5,-.295E-5,0
STARLINK-5759,2023-020Z,2026-06-23T20:37:21.468000,15.27572633,.00014604,43.0041,125.3049,269.3334,90.7350,0,U,55592,999,18515,.47787862E-4,.1053E-4,0
STARLINK-5703,2023-020AA,2026-06-23T14:15:10.675584,15.27566860,.00014346,43.0040,126.7553,283.1371,76.9321,0,U,55593,999,18511,.46431763E-4,.1015E-4,0
STARLINK-5750,2023-020AB,2026-06-24T02:59:31.910496,15.27578346,.00016906,43.0042,123.8575,268.1790,91.8868,0,U,55594,999,18519,.22182214E-4,.348E-5,0
STARLINK-5729,2023-020AD,2026-06-24T03:14:20.296032,15.27587802,.00007896,43.0032,123.9335,259.1725,100.9038,0,U,55596,999,18519,-.99629733E-4,-.3003E-4,0
STARLINK-5743,2023-020AE,2026-06-23T22:44:50.832384,15.27576033,.00013392,43.0050,113.8538,275.2212,84.8487,0,U,55597,999,18529,.33388E-6,-.253E-5,0
STARLINK-5756,2023-020AF,2026-06-24T02:43:06.698208,15.27574074,.0001475,43.0004,113.3373,266.5024,93.5659,0,U,55598,999,18531,.20450268E-4,.301E-5,0
STARLINK-5761,2023-020AG,2026-06-24T02:48:39.900672,15.27576655,.00011503,43.0016,113.3698,269.8208,90.2511,0,U,55599,999,18531,.38297631E-4,.792E-5,0
STARLINK-5755,2023-020AH,2026-06-24T02:13:30.666720,15.27576242,.00012345,43.0012,113.2020,250.6521,109.4197,0,U,55600,999,18531,.7854102E-5,-.46E-6,0
STARLINK-5744,2023-020AJ,2026-06-23T22:00:37.211904,15.27576857,.00014596,43.0051,125.7305,277.8950,82.1736,0,U,55601,999,18515,.14838871E-4,.146E-5,0
